[{"OBJECT_NAME":"STARLINK-4217","OBJECT_ID":"2022-076P","EPOCH":"2026-03-09T11:25:23.217024","MEAN_MOTION":15.08829001,"ECCENTRICITY":0.00014981,"INCLINATION":53.2169,"RA_OF_ASC_NODE":95.0808,"ARG_OF_PERICENTER":90.6536,"MEAN_ANOMALY":269.4628,"EPHEMERIS_TYPE":0,"CLASSIFICATION_TYPE":"U","NORAD_CAT_ID":52999,"ELEMENT_SET_NO":999,"REV_AT_EPOCH":20281,"BSTAR":0.00014496224,"MEAN_MOTION_DOT":2.019e-5,"MEAN_MOTION_DDOT":0},{"OBJECT_NAME":"THORAD DELTA 1 DEB","OBJECT_ID":"1974-089BJ","EPOCH":"2026-03-09T17:26:50.938944","MEAN_MOTION":14.89612235,"ECCENTRICITY":0.00930761,"INCLINATION":102.9252,"RA_OF_ASC_NODE":157.5149,"ARG_OF_PERICENTER":255.4838,"MEAN_ANOMALY":103.6021,"EPHEMERIS_TYPE":0,"CLASSIFICATION_TYPE":"U","NORAD_CAT_ID":8301,"ELEMENT_SET_NO":999,"REV_AT_EPOCH":53411,"BSTAR":0.014617981,"MEAN_MOTION_DOT":0.00154551,"MEAN_MOTION_DDOT":0}]
